#aV2021  4 15  0  0  0.00000000     288 DD+AD WGS84 FIT  NGA
## 2153 345600.00000000   300.00000000 59319 0.0000000000000
+   31     1  2  3  4  5  6  7  8  9 10 12 13 14 15 16 17 18
+         19 20 21 22 23 24 25 26 27 28 29 30 31 32  0  0  0
+          0  0  0  0  0  0  0  0  0  0  0  0  0  0  0  0  0
+          0  0  0  0  0  0  0  0  0  0  0  0  0  0  0  0  0
+          0  0  0  0  0  0  0  0  0  0  0  0  0  0  0  0  0
++         2  2  2  2  2  2  2  2  2  2  2  2  2  2  2  2  2
++         2  2  2  2  2  2  2  2  2  2  2  2  2  2  0  0  0
++         0  0  0  0  0  0  0  0  0  0  0  0  0  0  0  0  0
++         0  0  0  0  0  0  0  0  0  0  0  0  0  0  0  0  0
++         0  0  0  0  0  0  0  0  0  0  0  0  0  0  0  0  0
%c cc cc ccc ccc cccc cccc cccc cccc ccccc ccccc ccccc ccccc
%c cc cc ccc ccc cccc cccc cccc cccc ccccc ccccc ccccc ccccc
%f  0.0000000  0.000000000  0.00000000000  0.000000000000000
%f  0.0000000  0.000000000  0.00000000000  0.000000000000000
%i    0    0    0    0      0      0      0      0         0
%i    0    0    0    0      0      0      0      0         0
/*      NGA, ST. LOUIS,MO.                                  
/*   EPHEMERIS COMPUTED FROM 2 DAYS OF DATA                 
/*   EPOCHA v6 SMOOTHER                                     
/*   G2139 IERS2010 SATIGS SATAPC                           
*  2021  4 15  5 10  0.00000000
P  1 -13909.417124  22352.347231  -1731.675636    715.873754                    
V  1  -3019.923743    244.740296  32399.446536     -0.099327                    
P  2  18035.301458  -6956.716086 -17581.093601   -595.770451                    
V  2 -10174.249077  21391.951155 -18190.058008     -0.034258                    
P  3 -11698.143557  13011.548335 -20028.569291   -137.172603                    
V  3 -25136.277230  -2787.265168  13030.415326     -0.106145                    
P  4  -4912.484959  19190.958219 -17659.204272   -191.864699                    
V  4 -10750.172995 -19791.942684 -18564.198152     -0.019558                    
P  5  24841.051316  -4980.187255   8135.995671    -39.123225                    
V  5  10404.203644   2981.173415 -29211.736837     -0.010717                    
P  6  13180.659391   6657.371550 -22019.320523      7.360574                    
V  6 -15547.179919  23329.107463  -2188.958885      0.028553                    
P  7  -3207.002398  22322.107613  13968.590945    122.422712                    
V  7 -11960.524129  12880.929547 -24412.038771      0.115404                    
P  8 -10713.960010  11419.342628  21403.803290    -17.556417                    
V  8 -12996.911521 -23927.728572   6556.217436     -0.013462                    
P  9   4695.391777  24289.218948  -9697.217486   -338.988266                    
V  9  -8019.936251  -9654.353915 -28260.454178     -0.027316                    
P 10 -18412.495166 -11789.481488  15380.457214   -102.247378                    
V 10  19266.129908   -396.151251  22673.748660     -0.077500                    
P 12  15253.208917 -10912.079974 -19003.097168    -27.968965                    
V 12  23215.941104   4493.216083  16416.367790     -0.050948                    
P 13  15187.650517  -1495.661940  21616.751165    120.090987                    
V 13   8585.650408  26366.020190  -4055.617273      0.046086                    
P 14  17055.236892  13017.285624  15660.806764     95.944037                    
V 14 -20006.905318   -221.940047  21932.988206     -0.027803                    
P 15   9851.318268 -13046.467446  20519.298635   -156.090495                    
V 15  15508.585310  22208.076627   6913.267832      0.026110                    
P 16 -26235.611886   -568.834615   5227.201883   -309.897323                    
V 16  -6460.161723  -3040.368578 -30831.662150     -0.059129                    
P 17  13455.495347  22009.919756  -5887.032810    426.595317                    
V 17   1130.956624   8215.685280  31057.020636      0.061877                    
P 18    725.269476 -20773.656009  16491.499904    351.624206                    
V 18  13482.903797 -16144.796356 -20978.824601     -0.000426                    
P 19  16031.941988  15931.848354 -14318.858829    -12.776787                    
V 19   4633.156349  17061.582963  24562.172598      0.050121                    
P 20   6287.690965 -15565.566149  20472.828474    523.162556                    
V 20  26256.845345   -861.971469  -8996.503975     -0.003899                    
P 21 -16989.493444  18830.533556   7723.516930    111.080089                    
V 21   1835.712954  -9295.783234  29909.407039      0.028287                    
P 22 -20104.930688  10551.672106 -13430.110002   -637.594549                    
V 22 -17602.941611  -2490.820989  24229.427534      0.087780                    
P 23  -7075.397526 -14811.347726  20869.480000    113.411550                    
V 23  26537.272310    321.148038   9172.452308     -0.020919                    
P 24  15446.802942 -20913.702259   4029.887666      6.629863                    
V 24    657.339254   6714.418546  30872.727873      0.360058                    
P 25    629.823227 -15320.880539 -21952.440413    118.819107                    
V 25  27178.250674   1876.233139   -267.180825      0.072688                    
P 26 -25967.402303  -4092.456702  -4757.570394     72.331812                    
V 26   6013.967691  -2945.201789 -30393.511480      0.051674                    
P 27 -16378.928953  -1504.506149  20765.237603   -112.947634                    
V 27 -11192.095739 -24167.686080 -10132.469324     -0.068330                    
P 28  18779.815728  12803.867949  14139.234359    586.568463                    
V 28 -17151.263158   -919.779467  24758.722397     -0.057989                    
P 29  -3259.200107 -24647.503371  -9330.743731   -330.231520                    
V 29   6163.610848  10200.515682 -29283.988981     -0.067092                    
P 30   8102.458006  14704.963888  20589.045312   -413.007161                    
V 30 -16021.888119  20705.974913  -8737.129462     -0.052289                    
P 31 -15600.204772  -3940.407689 -21282.791295   -111.662062                    
V 31  15135.631261 -22084.624432  -6576.323011     -0.022179                    
P 32 -15960.849375 -19871.941086  -7668.679855     22.089228                    
V 32  -2045.793162  -9980.356045  29532.531068     -0.000094                    
EOF
